STARLINK-35301          
1 65843U 25221W   26197.30723441  .00005683  00000+0  17924-3 0  9994
2 65843  53.1571 208.9189 0001280  81.7999 278.3149 15.34393329 44454
STARLINK-35148          
1 65844U 25221X   26197.17485667  .00006546  00000+0  20472-3 0  9996
2 65844  53.1566 209.5120 0001310 118.9705 241.1429 15.34395077 44432
STARLINK-35302          
1 65845U 25221Y   26196.38901666  .00008014  00000+0  24804-3 0  9996
2 65845  53.1565 213.1436 0001164  80.9351 279.1783 15.34404120 44316
STARLINK-35290          
1 65846U 25221Z   26197.20431559  .00004531  00000+0  14519-3 0  9990
2 65846  53.1569 209.6971 0001144  79.1248 280.9884 15.34392263 44437
STARLINK-35262          
1 65847U 25221AA  26197.18171854  .00010217  00000+0  31293-3 0  9993
2 65847  53.1590 211.6864 0000979  72.0407 288.0702 15.34416234 45759
STARLINK-35308          
1 65848U 25221AB  26197.31565059  .00003304  00000+0  10889-3 0  9990
2 65848  53.1573 208.9712 0001123  84.0835 276.0295 15.34394024 45804
STARLINK-35231          
1 65849U 25221AC  26196.77197998  .00011465  00000+0  34990-3 0  9999
2 65849  53.1578 213.3931 0001777  88.1006 272.0200 15.34402533 45697
STARLINK-35252          
1 65850U 25221AD  26197.25002315 -.00013171  00000+0 -37956-3 0  9996
2 65850  53.1586 211.5272 0001600  76.5908 219.4780 15.34382338  5866
SHIYAN-30 01            
1 65851U 25222A   26197.27193625  .00000928  00000+0  92801-4 0  9990
2 65851  34.9885  87.6958 0001917 330.5043  29.5553 14.91842955 43388
SHIYAN-30 02            
1 65852U 25222B   26197.27117649  .00000930  00000+0  92987-4 0  9991
2 65852  34.9972  87.8659 0002294 352.2397   7.8273 14.91851771 43360
STARLINK-35208          
1 65854U 25223A   26196.91211801  .00006727  00000+0  21010-3 0  9997
2 65854  53.1587  56.7157 0001232 110.4282 249.6853 15.34392675 43869
STARLINK-35200          
1 65855U 25223B   26197.02383299  .00009946  00000+0  34720-3 0  9990
2 65855  53.1600  58.1154 0001285  70.6830 289.4309 15.30226493 43850
STARLINK-35459          
1 65856U 25223C   26196.90790874  .00010456  00000+0  32017-3 0  9993
2 65856  53.1580  56.6906 0001078  95.6006 264.5120 15.34398868 43864
STARLINK-35489          
1 65857U 25223D   26196.93315774  .00008572  00000+0  26454-3 0  9993
2 65857  53.1597  56.8467 0001162  85.6062 274.5073 15.34399939 43860
STARLINK-35199          
1 65858U 25223E   26196.94374738  .00010180  00000+0  35535-3 0  9998
2 65858  53.1604  58.3274 0001278  64.8498 295.2635 15.30200355 43844
STARLINK-35408          
1 65859U 25223F   26196.93947653  .00016710  00000+0  50418-3 0  9992
2 65859  53.1590  56.8871 0001162  74.5685 285.5446 15.34426296 43865
STARLINK-35303          
1 65860U 25223G   26196.93526638  .00006172  00000+0  19371-3 0  9994
2 65860  53.1603  56.8575 0001495  66.5010 293.6150 15.34390955 43869
STARLINK-35258          
1 65861U 25223H   26197.04449517  .00004547  00000+0  14566-3 0  9993
2 65861  53.1582  56.1195 0001171 108.5238 251.5892 15.34390137 43887
STARLINK-35386          
1 65862U 25223J   26197.02985465  .00009970  00000+0  30584-3 0  9992
2 65862  53.1580  56.7376 0001186  98.0053 262.1084 15.34398915 43879
STARLINK-35469          
1 65863U 25223K   26196.98777705  .00006529  00000+0  20420-3 0  9998
2 65863  53.1591  56.4766 0001295  96.3874 263.7276 15.34399973 43870
STARLINK-35471          
1 65864U 25223L   26197.00167339  .00006050  00000+0  21624-3 0  9995
2 65864  53.1613  57.9749 0001649  71.1136 289.0043 15.30200989 43853
STARLINK-35475          
1 65865U 25223M   26196.98356895  .00005505  00000+0  17401-3 0  9991
2 65865  53.1587  56.4433 0001258 101.3920 258.7224 15.34388121 43876
STARLINK-35312          
1 65866U 25223N   26196.92895338  .00008934  00000+0  27526-3 0  9994
2 65866  53.1599  56.8139 0001331  97.1549 262.9605 15.34396923 43866
STARLINK-35456          
1 65867U 25223P   26197.01011202  .00007153  00000+0  25339-3 0  9998
2 65867  53.1604  58.0228 0000844 146.5945 213.5109 15.30202254 43853
STARLINK-35450          
1 65868U 25223Q   26197.05080834  .00007793  00000+0  24157-3 0  9997
2 65868  53.1588  56.1590 0001396  97.4236 262.6925 15.34396885 43888
STARLINK-35441          
1 65869U 25223R   26197.00250158  .00012625  00000+0  38426-3 0  9995
2 65869  53.1593  56.5661 0000924 104.3695 255.7410 15.34391682 43872
STARLINK-35433          
1 65870U 25223S   26196.94057661  .00007795  00000+0  27502-3 0  9998
2 65870  53.1606  58.3044 0000981  97.5426 262.5687 15.30199251 43856
STARLINK-35465          
1 65871U 25223T   26197.01855526  .00010279  00000+0  35860-3 0  9991
2 65871  53.1590  58.0807 0001030  72.5548 287.5566 15.30207160 43859
STARLINK-34108          
1 65872U 25223U   26196.93952073  .00008993  00000+0  31534-3 0  9991
2 65872  53.1599  58.2955 0001205  95.7274 264.3865 15.30204633 43848
STARLINK-35423          
1 65873U 25223V   26196.90580536  .00009235  00000+0  28416-3 0  9995
2 65873  53.1573  56.6685 0001052  88.4409 271.6714 15.34396001 43863
