OBJECT_NAME,OBJECT_ID,EPOCH,MEAN_MOTION,ECCENTRICITY,INCLINATION,RA_OF_ASC_NODE,ARG_OF_PERICENTER,MEAN_ANOMALY,EPHEMERIS_TYPE,CLASSIFICATION_TYPE,NORAD_CAT_ID,ELEMENT_SET_NO,REV_AT_EPOCH,BSTAR,MEAN_MOTION_DOT,MEAN_MOTION_DDOT
STARLINK-35301,2025-221W,2026-07-16T07:22:25.053024,15.34393329,.00012805,53.1571,208.9189,81.7999,278.3149,0,U,65843,999,4445,.17923976E-3,.5683E-4,0
STARLINK-35148,2025-221X,2026-07-16T04:11:47.616288,15.34395077,.00013105,53.1566,209.5120,118.9705,241.1429,0,U,65844,999,4443,.20472236E-3,.6546E-4,0
STARLINK-35302,2025-221Y,2026-07-15T09:20:11.039424,15.34404120,.0001164,53.1565,213.1436,80.9351,279.1783,0,U,65845,999,4431,.24804447E-3,.8014E-4,0
STARLINK-35290,2025-221Z,2026-07-16T04:54:12.866976,15.34392263,.00011448,53.1569,209.6971,79.1248,280.9884,0,U,65846,999,4443,.14519179E-3,.4531E-4,0
STARLINK-35262,2025-221AA,2026-07-16T04:21:40.481856,15.34416234,.00009793,53.1590,211.6864,72.0407,288.0702,0,U,65847,999,4575,.31293332E-3,.10217E-3,0
STARLINK-35308,2025-221AB,2026-07-16T07:34:32.210976,15.34394024,.00011239,53.1573,208.9712,84.0835,276.0295,0,U,65848,999,4580,.10889494E-3,.3304E-4,0
STARLINK-35231,2025-221AC,2026-07-15T18:31:39.070272,15.34402533,.00017778,53.1578,213.3931,88.1006,272.0200,0,U,65849,999,4569,.34989805E-3,.11465E-3,0
STARLINK-35252,2025-221AD,2026-07-16T06:00:02.000160,15.34382338,.00016005,53.1586,211.5272,76.5908,219.4780,0,U,65850,999,586,-.37956038E-3,-.13171E-3,0
SHIYAN-30 01,2025-222A,2026-07-16T06:31:35.292000,14.91842955,.00019179,34.9885,87.6958,330.5043,29.5553,0,U,65851,999,4338,.92801118E-4,.928E-5,0
SHIYAN-30 02,2025-222B,2026-07-16T06:30:29.648736,14.91851771,.0002294,34.9972,87.8659,352.2397,7.8273,0,U,65852,999,4336,.92986615E-4,.93E-5,0
STARLINK-35208,2025-223A,2026-07-15T21:53:26.996064,15.34392675,.0001232,53.1587,56.7157,110.4282,249.6853,0,U,65854,999,4386,.2101E-3,.6727E-4,0
STARLINK-35200,2025-223B,2026-07-16T00:34:19.170336,15.30226493,.00012855,53.1600,58.1154,70.6830,289.4309,0,U,65855,999,4385,.34720121E-3,.9946E-4,0
STARLINK-35459,2025-223C,2026-07-15T21:47:23.315136,15.34398868,.0001078,53.1580,56.6906,95.6006,264.5120,0,U,65856,999,4386,.32017E-3,.10456E-3,0
STARLINK-35489,2025-223D,2026-07-15T22:23:44.828736,15.34399939,.0001162,53.1597,56.8467,85.6062,274.5073,0,U,65857,999,4386,.26454E-3,.8572E-4,0
STARLINK-35199,2025-223E,2026-07-15T22:38:59.773632,15.30200355,.00012783,53.1604,58.3274,64.8498,295.2635,0,U,65858,999,4384,.35535414E-3,.1018E-3,0
STARLINK-35408,2025-223F,2026-07-15T22:32:50.772192,15.34426296,.00011621,53.1590,56.8871,74.5685,285.5446,0,U,65859,999,4386,.50417861E-3,.1671E-3,0
STARLINK-35303,2025-223G,2026-07-15T22:26:47.015232,15.34390955,.0001495,53.1603,56.8575,66.5010,293.6150,0,U,65860,999,4386,.19371E-3,.6172E-4,0
STARLINK-35258,2025-223H,2026-07-16T01:04:04.382688,15.34390137,.00011712,53.1582,56.1195,108.5238,251.5892,0,U,65861,999,4388,.1456612E-3,.4547E-4,0
STARLINK-35386,2025-223J,2026-07-16T00:42:59.441760,15.34398915,.00011868,53.1580,56.7376,98.0053,262.1084,0,U,65862,999,4387,.30583642E-3,.997E-4,0
STARLINK-35469,2025-223K,2026-07-15T23:42:23.937120,15.34399973,.00012955,53.1591,56.4766,96.3874,263.7276,0,U,65863,999,4387,.20419564E-3,.6529E-4,0
STARLINK-35471,2025-223L,2026-07-16T00:02:24.580896,15.30200989,.00016495,53.1613,57.9749,71.1136,289.0043,0,U,65864,999,4385,.21623654E-3,.605E-4,0
STARLINK-35475,2025-223M,2026-07-15T23:36:20.357280,15.34388121,.00012584,53.1587,56.4433,101.3920,258.7224,0,U,65865,999,4387,.17400611E-3,.5505E-4,0
STARLINK-35312,2025-223N,2026-07-15T22:17:41.572032,15.34396923,.0001331,53.1599,56.8139,97.1549,262.9605,0,U,65866,999,4386,.27526E-3,.8934E-4,0
STARLINK-35456,2025-223P,2026-07-16T00:14:33.678528,15.30202254,.00008445,53.1604,58.0228,146.5945,213.5109,0,U,65867,999,4385,.25338842E-3,.7153E-4,0
STARLINK-35450,2025-223Q,2026-07-16T01:13:09.840576,15.34396885,.00013962,53.1588,56.1590,97.4236,262.6925,0,U,65868,999,4388,.24156752E-3,.7793E-4,0
STARLINK-35441,2025-223R,2026-07-16T00:03:36.136512,15.34391682,.00009249,53.1593,56.5661,104.3695,255.7410,0,U,65869,999,4387,.38426069E-3,.12625E-3,0
STARLINK-35433,2025-223S,2026-07-15T22:34:25.819104,15.30199251,.0000981,53.1606,58.3044,97.5426,262.5687,0,U,65870,999,4385,.27502E-3,.7795E-4,0
STARLINK-35465,2025-223T,2026-07-16T00:26:43.174464,15.30207160,.00010309,53.1590,58.0807,72.5548,287.5566,0,U,65871,999,4385,.35860089E-3,.10279E-3,0
STARLINK-34108,2025-223U,2026-07-15T22:32:54.591072,15.30204633,.0001205,53.1599,58.2955,95.7274,264.3865,0,U,65872,999,4384,.31534E-3,.8993E-4,0
STARLINK-35423,2025-223V,2026-07-15T21:44:21.583104,15.34396001,.0001052,53.1573,56.6685,88.4409,271.6714,0,U,65873,999,4386,.28416E-3,.9235E-4,0
